{
  "type": "FeatureCollection",
  "features": [
    {
      "type": "Feature",
      "properties": {
        "norad_id": 28051,
        "name": "IRS-P6 (RESOURCESAT-1)",
        "group": "resource",
        "lat": -74.04924013801501,
        "lon": 67.09868626626114,
        "alt_km": 810.2773372760466,
        "timestamp": "2025-12-22T18:58:53.077130+00:00",
        "meta_object_name": "IRS-P6 (RESOURCESAT-1)",
        "meta_object_id": "2003-046A",
        "meta_epoch": "2025-12-22T06:34:22.995264",
        "meta_mean_motion": 14.36078499,
        "meta_eccentricity": 0.00647517,
        "meta_inclination": 98.2165,
        "meta_ra_of_asc_node": 36.2389,
        "meta_arg_of_pericenter": 152.18,
        "meta_mean_anomaly": 339.6678,
        "meta_ephemeris_type": 0,
        "meta_classification_type": "U",
        "meta_norad_cat_id": 28051,
        "meta_element_set_no": 999,
        "meta_rev_at_epoch": 15513,
        "meta_bstar": 4.8513102e-05,
        "meta_mean_motion_dot": 1.04e-06,
        "meta_mean_motion_ddot": 0,
        "tle_line1": "1 28051U 03046A   25356.27387726  .00000104  00000+0  48513-4 0  9991",
        "tle_line2": "2 28051  98.2165  36.2389 0064751 152.1800 339.6678 14.36078499155138"
      },
      "geometry": {
        "type": "Point",
        "coordinates": [
          67.09868626626114,
          -74.04924013801501
        ]
      }
    },
    {
      "type": "Feature",
      "properties": {
        "norad_id": 28220,
        "name": "SHIYAN-1 (SY-1)",
        "group": "resource",
        "lat": -66.48439923617222,
        "lon": -139.66718862053222,
        "alt_km": 485.03835435550354,
        "timestamp": "2025-12-22T18:58:53.077141+00:00",
        "meta_object_name": "SHIYAN-1 (SY-1)",
        "meta_object_id": "2004-012A",
        "meta_epoch": "2025-12-21T21:28:24.522528",
        "meta_mean_motion": 15.28363795,
        "meta_eccentricity": 0.00051617,
        "meta_inclination": 97.8924,
        "meta_ra_of_asc_node": 57.9743,
        "meta_arg_of_pericenter": 287.3834,
        "meta_mean_anomaly": 72.684,
        "meta_ephemeris_type": 0,
        "meta_classification_type": "U",
        "meta_norad_cat_id": 28220,
        "meta_element_set_no": 999,
        "meta_rev_at_epoch": 18396,
        "meta_bstar": 0.00048309009,
        "meta_mean_motion_dot": 0.00013276,
        "meta_mean_motion_ddot": 0,
        "tle_line1": "1 28220U 04012A   25355.89472827  .00013276  00000+0  48309-3 0  9993",
        "tle_line2": "2 28220  97.8924  57.9743 0005161 287.3834  72.6840 15.28363795183961"
      },
      "geometry": {
        "type": "Point",
        "coordinates": [
          -139.66718862053222,
          -66.48439923617222
        ]
      }
    },
    {
      "type": "Feature",
      "properties": {
        "norad_id": 28376,
        "name": "AURA",
        "group": "resource",
        "lat": 8.993413084537652,
        "lon": -54.26222462540379,
        "alt_km": 691.6335230339346,
        "timestamp": "2025-12-22T18:58:53.077152+00:00",
        "meta_object_name": "AURA",
        "meta_object_id": "2004-026A",
        "meta_epoch": "2025-12-22T04:08:47.214816",
        "meta_mean_motion": 14.60967247,
        "meta_eccentricity": 0.00013893,
        "meta_inclination": 98.3199,
        "meta_ra_of_asc_node": 306.4438,
        "meta_arg_of_pericenter": 92.216,
        "meta_mean_anomaly": 267.9199,
        "meta_ephemeris_type": 0,
        "meta_classification_type": "U",
        "meta_norad_cat_id": 28376,
        "meta_element_set_no": 999,
        "meta_rev_at_epoch": 14036,
        "meta_bstar": 0.00020437487,
        "meta_mean_motion_dot": 9.54e-06,
        "meta_mean_motion_ddot": 0,
        "tle_line1": "1 28376U 04026A   25356.17276869  .00000954  00000+0  20437-3 0  9991",
        "tle_line2": "2 28376  98.3199 306.4438 0001389  92.2160 267.9199 14.60967247140369"
      },
      "geometry": {
        "type": "Point",
        "coordinates": [
          -54.26222462540379,
          8.993413084537652
        ]
      }
    },
    {
      "type": "Feature",
      "properties": {
        "norad_id": 28649,
        "name": "IRS-P5 (CARTOSAT-1)",
        "group": "resource",
        "lat": -26.025658069393625,
        "lon": -160.9542603216083,
        "alt_km": 602.7250001072853,
        "timestamp": "2025-12-22T18:58:53.077163+00:00",
        "meta_object_name": "IRS-P5 (CARTOSAT-1)",
        "meta_object_id": "2005-017A",
        "meta_epoch": "2025-12-22T01:56:47.867712",
        "meta_mean_motion": 14.90434705,
        "meta_eccentricity": 6.838e-05,
        "meta_inclination": 97.5483,
        "meta_ra_of_asc_node": 22.0798,
        "meta_arg_of_pericenter": 54.1039,
        "meta_mean_anomaly": 306.0243,
        "meta_ephemeris_type": 0,
        "meta_classification_type": "U",
        "meta_norad_cat_id": 28649,
        "meta_element_set_no": 999,
        "meta_rev_at_epoch": 11743,
        "meta_bstar": 0.00015409371,
        "meta_mean_motion_dot": 1.45e-05,
        "meta_mean_motion_ddot": 0,
        "tle_line1": "1 28649U 05017A   25356.08110958  .00001450  00000+0  15409-3 0  9996",
        "tle_line2": "2 28649  97.5483  22.0798 0000683  54.1039 306.0243 14.90434705117435"
      },
      "geometry": {
        "type": "Point",
        "coordinates": [
          -160.9542603216083,
          -26.025658069393625
        ]
      }
    },
    {
      "type": "Feature",
      "properties": {
        "norad_id": 28893,
        "name": "SINAH 1",
        "group": "resource",
        "lat": -35.49711667367162,
        "lon": 131.32268158058818,
        "alt_km": 695.5328018899354,
        "timestamp": "2025-12-22T18:58:53.077174+00:00",
        "meta_object_name": "SINAH 1",
        "meta_object_id": "2005-043D",
        "meta_epoch": "2025-12-22T06:01:21.627264",
        "meta_mean_motion": 14.6397211,
        "meta_eccentricity": 0.00156751,
        "meta_inclination": 98.2609,
        "meta_ra_of_asc_node": 124.8338,
        "meta_arg_of_pericenter": 109.2214,
        "meta_mean_anomaly": 251.0686,
        "meta_ephemeris_type": 0,
        "meta_classification_type": "U",
        "meta_norad_cat_id": 28893,
        "meta_element_set_no": 999,
        "meta_rev_at_epoch": 7463,
        "meta_bstar": 8.8596466e-05,
        "meta_mean_motion_dot": 4.16e-06,
        "meta_mean_motion_ddot": 0,
        "tle_line1": "1 28893U 05043D   25356.25094476  .00000416  00000+0  88596-4 0  9990",
        "tle_line2": "2 28893  98.2609 124.8338 0015675 109.2214 251.0686 14.63972110 74630"
      },
      "geometry": {
        "type": "Point",
        "coordinates": [
          131.32268158058818,
          -35.49711667367162
        ]
      }
    },
    {
      "type": "Feature",
      "properties": {
        "norad_id": 29079,
        "name": "EROS B",
        "group": "resource",
        "lat": -18.042957070972832,
        "lon": -68.54214454445801,
        "alt_km": 360.94031106387774,
        "timestamp": "2025-12-22T18:58:53.077186+00:00",
        "meta_object_name": "EROS B",
        "meta_object_id": "2006-014A",
        "meta_epoch": "2025-12-22T07:26:30.956064",
        "meta_mean_motion": 15.71235558,
        "meta_eccentricity": 0.0003822,
        "meta_inclination": 97.3463,
        "meta_ra_of_asc_node": 113.3607,
        "meta_arg_of_pericenter": 311.1598,
        "meta_mean_anomaly": 48.9335,
        "meta_ephemeris_type": 0,
        "meta_classification_type": "U",
        "meta_norad_cat_id": 29079,
        "meta_element_set_no": 999,
        "meta_rev_at_epoch": 9230,
        "meta_bstar": 0.0014744142,
        "meta_mean_motion_dot": 0.00190073,
        "meta_mean_motion_ddot": 0,
        "tle_line1": "1 29079U 06014A   25356.31008051  .00190073  00000+0  14744-2 0  9998",
        "tle_line2": "2 29079  97.3463 113.3607 0003822 311.1598  48.9335 15.71235558 92303"
      },
      "geometry": {
        "type": "Point",
        "coordinates": [
          -68.54214454445801,
          -18.042957070972832
        ]
      }
    },
    {
      "type": "Feature",
      "properties": {
        "norad_id": 29228,
        "name": "RESURS-DK 1",
        "group": "resource",
        "lat": -26.579776899520475,
        "lon": -93.59911461922798,
        "alt_km": 531.036616177149,
        "timestamp": "2025-12-22T18:58:53.077196+00:00",
        "meta_object_name": "RESURS-DK 1",
        "meta_object_id": "2006-021A",
        "meta_epoch": "2025-12-22T05:21:44.466048",
        "meta_mean_motion": 15.12210108,
        "meta_eccentricity": 0.0006862,
        "meta_inclination": 69.9337,
        "meta_ra_of_asc_node": 77.3289,
        "meta_arg_of_pericenter": 250.5705,
        "meta_mean_anomaly": 109.472,
        "meta_ephemeris_type": 0,
        "meta_classification_type": "U",
        "meta_norad_cat_id": 29228,
        "meta_element_set_no": 999,
        "meta_rev_at_epoch": 7581,
        "meta_bstar": 0.00015283625,
        "meta_mean_motion_dot": 2.54e-05,
        "meta_mean_motion_ddot": 0,
        "tle_line1": "1 29228U 06021A   25356.22343132  .00002540  00000+0  15284-3 0  9996",
        "tle_line2": "2 29228  69.9337  77.3289 0006862 250.5705 109.4720 15.12210108 75819"
      },
      "geometry": {
        "type": "Point",
        "coordinates": [
          -93.59911461922798,
          -26.579776899520475
        ]
      }
    }
  ]
}